[
    {
        "Altitude(m)": 617710.640202726,
        "Argument of Periapsis(deg)": 0.0,
        "Eccentricity": 0.0,
        "Inclination(deg)": 60.0,
        "Latitude(deg)": -41.10266160885652,
        "Longitude(deg)": 144.96659184003894,
        "Mean Anomaly(deg)": -49.09089999999994,
        "RAAN(deg)": 275.0,
        "Satellite Name": "Test1 1229",
        "Satellite Number": 1229,
        "Semi-Major Axis(m)": 6980739.136638005,
        "Time(s)": 0
    },
    {
        "Altitude(m)": 617517.9388353358,
        "Argument of Periapsis(deg)": 0.00010418945913296404,
        "Eccentricity": 0.0,
        "Inclination(deg)": 60.0,
        "Latitude(deg)": -40.636868945536975,
        "Longitude(deg)": 145.46338608148307,
        "Mean Anomaly(deg)": -48.470793854538094,
        "RAAN(deg)": 274.9995799508602,
        "Satellite Name": "Test1 1229",
        "Satellite Number": 1229,
        "Semi-Major Axis(m)": 6980739.136638005,
        "Time(s)": 10
    }
]